IRIDIUM 143             
1 43258U 18030K   26201.75754012  .00000076  00000+0  20145-4 0  9994
2 43258  86.3955 276.5247 0002331  95.7340 264.4121 14.34217885434903
GAOFEN-1 02             
1 43259U 18031A   26201.98055697 -.00000169  00000+0 -16816-4 0  9999
2 43259  98.0505 264.4100 0001517 248.4722 111.6326 14.76474320447689
GAOFEN-1 03             
1 43260U 18031B   26201.95869012  .00000383  00000+0  62433-4 0  9994
2 43260  98.0499 264.2427 0001947 357.8383   2.2818 14.76467308447676
GAOFEN-1 04             
1 43262U 18031D   26201.93444892  .00000211  00000+0  37753-4 0  9996
2 43262  98.0506 264.4136 0000916  52.7487 307.3806 14.76441395447660
SUPERBIRD-B3            
1 43271U 18033A   26201.86429103 -.00000092  00000+0  00000+0 0  9996
2 43271   0.0364 249.3090 0001439 248.4053 274.0642  1.00272063 30393
HYLAS 4                 
1 43272U 18033B   26201.68285281 -.00000234  00000+0  00000+0 0  9992
2 43272   0.0425 247.9188 0000920 228.1081  34.7583  1.00271617 30405
YAOGAN-31 01A           
1 43275U 18034A   26201.95474091 -.00000015  00000+0  10119-3 0  9998
2 43275  63.3962   4.3908 0278051   7.6056 352.9056 13.45463745406645
YAOGAN-31 01B           
1 43276U 18034B   26201.95603847 -.00000031  00000+0  79088-4 0  9991
2 43276  63.3964   4.3954 0278053   7.5582 352.9505 13.45459302406760
YAOGAN-31 01C           
1 43277U 18034C   26201.95900584  .00000014  00000+0  13968-3 0  9994
2 43277  63.3974   3.7564 0278256   7.2595 353.2333 13.45446467406781
WEINA 1B                
1 43279U 18034E   26201.97248977 -.00000058  00000+0  43414-4 0  9998
2 43279  63.3967   4.9577 0277971   7.9597 352.5705 13.45373022406752
IRNSS-1I                
1 43286U 18035A   26200.73725213  .00000063  00000+0  00000+0 0  9997
2 43286  28.8289  73.6878 0018365 178.9692   5.3277  1.00273777 30401
USA 283                 
1 43339U 18036A   26200.50433174 -.00000322  00000+0  00000+0 0  9993
2 43339   0.0121 113.1212 0000802  85.3615  54.4575  1.00271912 25614
COSMOS 2526             
1 43432U 18037A   26201.00126137 -.00000347  00000+0  00000+0 0  9999
2 43432   0.0287  96.0594 0000574 109.7113 220.5338  1.00275110 30289
SENTINEL-3B             
1 43437U 18039A   26201.78190778  .00000036  00000+0  32817-4 0  9993
2 43437  98.6231 268.8292 0001267 118.6255 241.5053 14.26737354428919
ZHUHAI-1 OVS-02         
1 43440U 18040B   26201.95293715  .00004576  00000+0  18364-3 0  9996
2 43440  97.0389 217.1875 0005473 121.8234 238.3539 15.25422536457862
ZHUHAI-1 OHS-02         
1 43441U 18040C   26201.91866988  .00005324  00000+0  20734-3 0  9997
2 43441  97.0365 224.1283 0011442 108.3662 251.8823 15.26318535119423
USA 285                 
1 43445U 18036E   26200.89806325 -.00000043  00000+0  00000+0 0  9995
2 43445   7.1946  66.5552 0010760 168.5108 348.1676  1.02112416 27272
USA 286                 
1 43446U 18036F   26194.82406008  .00000026  00000+0  00000+0 0  9995
2 43446   7.1767  66.5998 0010928 167.0328 353.1866  1.02118708 27190
APSTAR-6C               
1 43450U 18041A   26200.68559755 -.00000322  00000+0  00000+0 0  9996
2 43450   0.0842 293.1098 0000533 294.7366  90.4374  1.00269212 30139
GAOFEN-5 01             
1 43461U 18043A   26201.90300102  .00000192  00000+0  49629-4 0  9995
2 43461  98.4595 174.2023 0001756  19.3304 340.7962 14.60625801436612
BANGABANDHUSAT-1        
1 43463U 18044A   26201.64194596 -.00000363  00000+0  00000+0 0  9993
2 43463   0.0361  96.9206 0001956  23.2876 168.4072  1.00272169 30046
GRACE-FO 1              
1 43476U 18047A   26201.92154128  .00002751  00000+0  71571-4 0  9996
2 43476  88.9927 193.3133 0009880 356.7004   3.4185 15.38469996454983
GRACE-FO 2              
1 43477U 18047B   26201.92183401  .00002788  00000+0  72531-4 0  9990
2 43477  88.9927 193.3131 0009903 356.7446   3.3743 15.38469055454983
IRIDIUM 161             
1 43478U 18047C   26201.72512623  .00000161  00000+0  41848-4 0  9991
2 43478  86.4456  74.4444 0002162  80.7439 279.4006 14.43277404429975
IRIDIUM 152             
1 43479U 18047D   26201.73025738 -.00000060  00000+0 -28595-4 0  9993
2 43479  86.3927  74.3032 0001960  84.0371 276.1048 14.34217385427292
IRIDIUM 147             
1 43480U 18047E   26201.87613700  .00000079  00000+0  21311-4 0  9999
2 43480  86.3932  74.2482 0002297  87.5600 272.5859 14.34218010427314
IRIDIUM 110             
1 43481U 18047F   26201.88247794  .00000209  00000+0  67402-4 0  9993
2 43481  86.3936  74.3385 0002018  78.2279 281.9143 14.34217536427303
IRIDIUM 162             
1 43482U 18047G   26201.92681344  .00000188  00000+0  49747-4 0  9990
2 43482  86.4454  74.2505 0002184  86.6280 273.5170 14.43280371429993
GAOFEN-6                
1 43484U 18048A   26201.95724738  .00000418  00000+0  67703-4 0  9999
2 43484  98.0949 264.6726 0012017  65.5929 294.6533 14.76387969438371
LUOJIA-1 01             
1 43485U 18048B   26201.94640243  .00000189  00000+0  26946-4 0  9996
2 43485  97.8089 279.5926 0009305  20.1056 340.0525 14.87388747439235
SES-12                  
1 43488U 18049A   26201.92232699 -.00000269  00000+0  00000+0 0  9998
2 43488   0.0115   6.8537 0000746 236.3888 122.4799  1.00268377 29751
